STARLINK-5677
1 55463U 23015Q   26092.56281799  .00036261  00000+0  19282-2 0  9991
2 55463  43.0008 194.7015 0001275 272.7912  87.2789 15.14660797174360
